start=new Date('2022-09-15T00:00:00.000Z').valueOf();
sats=[{"MEAN_ANOMALY":"273.9680","NORAD_CAT_ID":"48111","LAUNCH_DATE":"2021-04-07","OBJECT_TYPE":"PAYLOAD","CENTER_NAME":"EARTH","APOAPSIS":"548.517","MEAN_MOTION":"15.06386957","PERIOD":"95.593","TLE_LINE2":"2 48111  53.0536 112.1259 0001825  86.1518 273.9680 15.06386957 80839","TIME_SYSTEM":"UTC","OBJECT_ID":"2021-027V","SEMIMAJOR_AXIS":"6925.389","ARG_OF_PERICENTER":"86.1518","REV_AT_EPOCH":"8083","RA_OF_ASC_NODE":"112.1259","ELEMENT_SET_NO":"999","OBJECT_NAME":"STARLINK-2448","EPHEMERIS_TYPE":"0","COUNTRY_CODE":"US","CLASSIFICATION_TYPE":"U","EPOCH":"2022-09-14T15:00:08.543232","FILE":"3574287","MEAN_ELEMENT_THEORY":"SGP4","RCS_SIZE":"LARGE","DECAY_DATE":null,"REF_FRAME":"TEME","TLE_LINE1":"1 48111U 21027V   22257.62509888  .00000270  00000-0  37056-4 0  9995","SITE":"AFETR","ECCENTRICITY":"0.00018250","INCLINATION":"53.0536","MEAN_MOTION_DDOT":"0.0000000000000","MEAN_MOTION_DOT":"0.00000270","BSTAR":"0.00003705600000","GP_ID":"212612146","PERIAPSIS":"545.990"},{"TIME_SYSTEM":"UTC","TLE_LINE2":"2 48112  53.0556 128.5280 0001354  62.5461 297.5665 15.06396898 80570","SEMIMAJOR_AXIS":"6925.358","OBJECT_ID":"2021-027W","MEAN_ANOMALY":"297.5665","LAUNCH_DATE":"2021-04-07","NORAD_CAT_ID":"48112","OBJECT_TYPE":"PAYLOAD","APOAPSIS":"548.161","CENTER_NAME":"EARTH","PERIOD":"95.592","MEAN_MOTION":"15.06396898","SITE":"AFETR","TLE_LINE1":"1 48112U 21027W   22257.35281540 -.00001274  00000-0 -66644-4 0  9990","ECCENTRICITY":"0.00013540","INCLINATION":"53.0556","MEAN_MOTION_DDOT":"0.0000000000000","BSTAR":"-0.00006664400000","MEAN_MOTION_DOT":"-0.00001274","GP_ID":"212580238","PERIAPSIS":"546.285","REV_AT_EPOCH":"8057","ARG_OF_PERICENTER":"62.5461","RA_OF_ASC_NODE":"128.5280","ELEMENT_SET_NO":"999","OBJECT_NAME":"STARLINK-2449","EPHEMERIS_TYPE":"0","COUNTRY_CODE":"US","CLASSIFICATION_TYPE":"U","FILE":"3574027","MEAN_ELEMENT_THEORY":"SGP4","EPOCH":"2022-09-14T08:28:03.250560","DECAY_DATE":null,"REF_FRAME":"TEME","RCS_SIZE":"LARGE"},{"OBJECT_ID":"2021-027X","SEMIMAJOR_AXIS":"6925.373","TLE_LINE2":"2 48113  53.0552 122.1662 0001295  73.5895 286.5236 15.06392026 80670","TIME_SYSTEM":"UTC","NORAD_CAT_ID":"48113","LAUNCH_DATE":"2021-04-07","OBJECT_TYPE":"PAYLOAD","MEAN_ANOMALY":"286.5236","APOAPSIS":"548.135","CENTER_NAME":"EARTH","MEAN_MOTION":"15.06392026","PERIOD":"95.593","INCLINATION":"53.0552","TLE_LINE1":"1 48113U 21027X   22257.62049310 -.00000323  00000-0 -28119-5 0  9998","SITE":"AFETR","ECCENTRICITY":"0.00012950","MEAN_MOTION_DOT":"-0.00000323","BSTAR":"-0.00000281190000","GP_ID":"212611653","PERIAPSIS":"546.341","MEAN_MOTION_DDOT":"0.0000000000000","ELEMENT_SET_NO":"999","OBJECT_NAME":"STARLINK-2450","RA_OF_ASC_NODE":"122.1662","ARG_OF_PERICENTER":"73.5895","REV_AT_EPOCH":"8067","EPOCH":"2022-09-14T14:53:30.603840","MEAN_ELEMENT_THEORY":"SGP4","FILE":"3574287","RCS_SIZE":"LARGE","DECAY_DATE":null,"REF_FRAME":"TEME","EPHEMERIS_TYPE":"0","COUNTRY_CODE":"US","CLASSIFICATION_TYPE":"U"},{"SEMIMAJOR_AXIS":"6925.361","OBJECT_ID":"2021-027Y","TIME_SYSTEM":"UTC","TLE_LINE2":"2 48114  53.0527 116.7392 0001219  92.0204 268.0925 15.06395951 80779","MEAN_MOTION":"15.06395951","PERIOD":"95.592","APOAPSIS":"548.070","CENTER_NAME":"EARTH","OBJECT_TYPE":"PAYLOAD","NORAD_CAT_ID":"48114","LAUNCH_DATE":"2021-04-07","MEAN_ANOMALY":"268.0925","PERIAPSIS":"546.382","GP_ID":"212612404","MEAN_MOTION_DOT":"0.00000275","BSTAR":"0.00003736100000","MEAN_MOTION_DDOT":"0.0000000000000","INCLINATION":"53.0527","ECCENTRICITY":"0.00012190","TLE_LINE1":"1 48114U 21027Y   22257.71399552  .00000275  00000-0  37361-4 0  9997","SITE":"AFETR","RCS_SIZE":"LARGE","REF_FRAME":"TEME","DECAY_DATE":null,"EPOCH":"2022-09-14T17:08:09.212928","FILE":"3574287","MEAN_ELEMENT_THEORY":"SGP4","CLASSIFICATION_TYPE":"U","EPHEMERIS_TYPE":"0","COUNTRY_CODE":"US","OBJECT_NAME":"STARLINK-2451","ELEMENT_SET_NO":"999","RA_OF_ASC_NODE":"116.7392","ARG_OF_PERICENTER":"92.0204","REV_AT_EPOCH":"8077"},{"FILE":"3574027","MEAN_ELEMENT_THEORY":"SGP4","EPOCH":"2022-09-14T08:15:23.213088","REF_FRAME":"TEME","DECAY_DATE":null,"RCS_SIZE":"LARGE","COUNTRY_CODE":"US","EPHEMERIS_TYPE":"0","CLASSIFICATION_TYPE":"U","ELEMENT_SET_NO":"999","OBJECT_NAME":"STARLINK-2452","ARG_OF_PERICENTER":"79.9714","REV_AT_EPOCH":"8078","RA_OF_ASC_NODE":"113.4062","BSTAR":"0.00006916100000","MEAN_MOTION_DOT":"0.00000749","GP_ID":"212581990","PERIAPSIS":"546.359","MEAN_MOTION_DDOT":"0.0000000000000","INCLINATION":"53.0551","SITE":"AFETR","TLE_LINE1":"1 48115U 21027Z   22257.34401867  .00000749  00000-0  69161-4 0  9999","ECCENTRICITY":"0.00012320","APOAPSIS":"548.066","CENTER_NAME":"EARTH","PERIOD":"95.592","MEAN_MOTION":"15.06400374","LAUNCH_DATE":"2021-04-07","NORAD_CAT_ID":"48115","OBJECT_TYPE":"PAYLOAD","MEAN_ANOMALY":"280.1414","OBJECT_ID":"2021-027Z","SEMIMAJOR_AXIS":"6925.347","TLE_LINE2":"2 48115  53.0551 113.4062 0001232  79.9714 280.1414 15.06400374 80785","TIME_SYSTEM":"UTC"},{"SITE":"AFETR","TLE_LINE1":"1 48116U 21027AA  22257.74949587  .00000479  00000-0  51083-4 0  9994","ECCENTRICITY":"0.00014400","INCLINATION":"53.0545","MEAN_MOTION_DDOT":"0.0000000000000","BSTAR":"0.00005108300000","MEAN_MOTION_DOT":"0.00000479","PERIAPSIS":"546.231","GP_ID":"212611406","ARG_OF_PERICENTER":"74.2307","REV_AT_EPOCH":"8070","RA_OF_ASC_NODE":"121.5728","ELEMENT_SET_NO":"999","OBJECT_NAME":"STARLINK-2454","COUNTRY_CODE":"US","EPHEMERIS_TYPE":"0","CLASSIFICATION_TYPE":"U","FILE":"3574287","MEAN_ELEMENT_THEORY":"SGP4","EPOCH":"2022-09-14T17:59:16.443168","DECAY_DATE":null,"REF_FRAME":"TEME","RCS_SIZE":"LARGE","TLE_LINE2":"2 48116  53.0545 121.5728 0001440  74.2307 285.8840 15.06395075 80703","TIME_SYSTEM":"UTC","SEMIMAJOR_AXIS":"6925.364","OBJECT_ID":"2021-027AA","MEAN_ANOMALY":"285.8840","LAUNCH_DATE":"2021-04-07","NORAD_CAT_ID":"48116","OBJECT_TYPE":"PAYLOAD","APOAPSIS":"548.226","CENTER_NAME":"EARTH","PERIOD":"95.592","MEAN_MOTION":"15.06395075"},{"MEAN_MOTION_DDOT":"0.0000000000000","BSTAR":"0.00002002900000","MEAN_MOTION_DOT":"0.00000017","GP_ID":"212611154","PERIAPSIS":"546.591","SITE":"AFETR","TLE_LINE1":"1 48117U 21027AB  22257.65456308  .00000017  00000-0  20029-4 0  9993","ECCENTRICITY":"0.00009480","INCLINATION":"53.0558","COUNTRY_CODE":"US","EPHEMERIS_TYPE":"0","CLASSIFICATION_TYPE":"U","FILE":"3574287","MEAN_ELEMENT_THEORY":"SGP4","EPOCH":"2022-09-14T15:42:34.250112","REF_FRAME":"TEME","DECAY_DATE":null,"RCS_SIZE":"LARGE","ARG_OF_PERICENTER":"83.6545","REV_AT_EPOCH":"8097","RA_OF_ASC_NODE":"102.0077","ELEMENT_SET_NO":"999","OBJECT_NAME":"STARLINK-2455","TLE_LINE2":"2 48117  53.0558 102.0077 0000948  83.6545 276.4552 15.06388941 80978","TIME_SYSTEM":"UTC","OBJECT_ID":"2021-027AB","SEMIMAJOR_AXIS":"6925.382","APOAPSIS":"547.904","CENTER_NAME":"EARTH","PERIOD":"95.593","MEAN_MOTION":"15.06388941","MEAN_ANOMALY":"276.4552","LAUNCH_DATE":"2021-04-07","NORAD_CAT_ID":"48117","OBJECT_TYPE":"PAYLOAD"},{"OBJECT_ID":"2021-027AC","SEMIMAJOR_AXIS":"6925.348","TIME_SYSTEM":"UTC","TLE_LINE2":"2 48118  53.0547 103.7464 0001337  74.2879 285.8257 15.06400271 80915","LAUNCH_DATE":"2021-04-07","NORAD_CAT_ID":"48118","OBJECT_TYPE":"PAYLOAD","MEAN_ANOMALY":"285.8257","APOAPSIS":"548.139","CENTER_NAME":"EARTH","PERIOD":"95.592","MEAN_MOTION":"15.06400271","INCLINATION":"53.0547","SITE":"AFETR","TLE_LINE1":"1 48118U 21027AC  22257.26847413  .00000170  00000-0  30297-4 0  9990","ECCENTRICITY":"0.00013370","BSTAR":"0.00003029700000","MEAN_MOTION_DOT":"0.00000170","PERIAPSIS":"546.287","GP_ID":"212581740","MEAN_MOTION_DDOT":"0.0000000000000","ELEMENT_SET_NO":"999","OBJECT_NAME":"STARLINK-2458","ARG_OF_PERICENTER":"74.2879","RA_OF_ASC_NODE":"103.7464","REV_AT_EPOCH":"8091","MEAN_ELEMENT_THEORY":"SGP4","FILE":"3574027","EPOCH":"2022-09-14T06:26:36.164832","DECAY_DATE":null,"REF_FRAME":"TEME","RCS_SIZE":"LARGE","COUNTRY_CODE":"US","EPHEMERIS_TYPE":"0","CLASSIFICATION_TYPE":"U"},{"TLE_LINE2":"2 48119  53.0562 101.9758 0001524  68.0925 292.0226 15.06383301 80965","TIME_SYSTEM":"UTC","OBJECT_ID":"2021-027AD","SEMIMAJOR_AXIS":"6925.400","MEAN_ANOMALY":"292.0226","OBJECT_TYPE":"PAYLOAD","LAUNCH_DATE":"2021-04-07","NORAD_CAT_ID":"48119","PERIOD":"95.593","MEAN_MOTION":"15.06383301","CENTER_NAME":"EARTH","APOAPSIS":"548.320","ECCENTRICITY":"0.00015240","SITE":"AFETR","TLE_LINE1":"1 48119U 21027AD  22257.66193726  .00000845  00000-0  75643-4 0  9999","INCLINATION":"53.0562","MEAN_MOTION_DDOT":"0.0000000000000","PERIAPSIS":"546.209","GP_ID":"212612147","BSTAR":"0.00007564300000","MEAN_MOTION_DOT":"0.00000845","RA_OF_ASC_NODE":"101.9758","ARG_OF_PERICENTER":"68.0925","REV_AT_EPOCH":"8096","OBJECT_NAME":"STARLINK-2459","ELEMENT_SET_NO":"999","CLASSIFICATION_TYPE":"U","COUNTRY_CODE":"US","EPHEMERIS_TYPE":"0","DECAY_DATE":null,"REF_FRAME":"TEME","RCS_SIZE":"LARGE","MEAN_ELEMENT_THEORY":"SGP4","FILE":"3574287","EPOCH":"2022-09-14T15:53:11.379264"},{"OBJECT_ID":"2021-027AE","SEMIMAJOR_AXIS":"6925.361","TIME_SYSTEM":"UTC","TLE_LINE2":"2 48120  53.0551 121.6566 0001530  74.6407 285.4751 15.06395992 80717","LAUNCH_DATE":"2021-04-07","NORAD_CAT_ID":"48120","OBJECT_TYPE":"PAYLOAD","MEAN_ANOMALY":"285.4751","APOAPSIS":"548.285","CENTER_NAME":"EARTH","PERIOD":"95.592","MEAN_MOTION":"15.06395992","INCLINATION":"53.0551","SITE":"AFETR","TLE_LINE1":"1 48120U 21027AE  22257.73475378  .00000333  00000-0  41232-4 0  9994","ECCENTRICITY":"0.00015300","BSTAR":"0.00004123200000","MEAN_MOTION_DOT":"0.00000333","PERIAPSIS":"546.166","GP_ID":"212610907","MEAN_MOTION_DDOT":"0.0000000000000","ELEMENT_SET_NO":"999","OBJECT_NAME":"STARLINK-2460","REV_AT_EPOCH":"8071","RA_OF_ASC_NODE":"121.6566","ARG_OF_PERICENTER":"74.6407","MEAN_ELEMENT_THEORY":"SGP4","FILE":"3574287","EPOCH":"2022-09-14T17:38:02.726592","DECAY_DATE":null,"REF_FRAME":"TEME","RCS_SIZE":"LARGE","EPHEMERIS_TYPE":"0","COUNTRY_CODE":"US","CLASSIFICATION_TYPE":"U"}];
